[Satellite]
VERSION=1.1
NAME=CZ-6A DEB
NICKNAME=CZ-6A DEB
TLE1=1 54474U 22151HA  22341.94646877  .00000536  00000+0  44591-3 0  9997
TLE2=2 54474  98.8146 345.6009 0145054  12.3576 348.1079 13.88014922  3353
STATUS=0
